[{"OBJECT_NAME":"GCOM-C (SHIKISAI)","OBJECT_ID":"2017-082A","EPOCH":"2026-03-09T22:50:15.762048","MEAN_MOTION":14.27292109,"ECCENTRICITY":0.00011018,"INCLINATION":98.6348,"RA_OF_ASC_NODE":143.8758,"ARG_OF_PERICENTER":107.3468,"MEAN_ANOMALY":252.7834,"EPHEMERIS_TYPE":0,"CLASSIFICATION_TYPE":"U","NORAD_CAT_ID":43065,"ELEMENT_SET_NO":999,"REV_AT_EPOCH":42778,"BSTAR":9.0011429e-5,"MEAN_MOTION_DOT":1.76e-6,"MEAN_MOTION_DDOT":0},{"OBJECT_NAME":"FENGYUN 1C DEB","OBJECT_ID":"1999-025QA","EPOCH":"2026-03-09T11:25:59.275200","MEAN_MOTION":14.19295177,"ECCENTRICITY":0.00546014,"INCLINATION":99.4197,"RA_OF_ASC_NODE":51.9367,"ARG_OF_PERICENTER":36.2728,"MEAN_ANOMALY":89.2675,"EPHEMERIS_TYPE":0,"CLASSIFICATION_TYPE":"U","NORAD_CAT_ID":30073,"ELEMENT_SET_NO":999,"REV_AT_EPOCH":98155,"BSTAR":0.0021188938,"MEAN_MOTION_DOT":4.467e-5,"MEAN_MOTION_DDOT":0}]
